# From MPEC 2022-S20
C/1995 O1 (Hale-Bopp),e,89.6360,281.9519,130.4248,179.8751,0.0004086,0.99492171,0.0000,03/30.4172/1997,2000,g -2.0,4.0
# From NK 1615
P/1996 R2 (Lagerkvist),e,2.5990,40.0371,333.5122,3.771515,0.1345644,0.31406222,342.8086,02/08.0/2026,2000,g 11.5,4.0
# From MPC 73460
C/1997 BA6 (Spacewatch),e,72.6933,317.7904,286.0697,2923,0.0000062,0.99881568,0.0000,11/16.2103/1999,2000,g 10.0,2.0
# From MPC 75703
P/1998 VS24 (LINEAR),e,5.0302,159.0325,244.9392,4.519446,0.1025832,0.24342129,300.7891,02/08.0/2026,2000,g 13.0,2.0
# From MPC 73461
C/1999 F1 (Catalina),e,91.8746,19.9606,255.3252,20276,0.0000003,0.99971332,0.0000,01/31.0963/2002,2000,g  9.5,2.0
# From MPC186628
C/1999 J2 (Skiff),h,04/09.5970/2000,86.4016,50.2636,126.9632,1.000772,7.069997,2000,2.0,4.0
# From NK 731
P/1999 RO28 (LONEOS),e,7.5673,137.8388,231.3636,3.425641,0.1554502,0.67221858,15.6522,02/08.0/2026,2000,g 20.0,2.0
# From MPC 43758
C/1999 S2 (McNaught-Watson),h,11/06.5710/1997,65.6344,74.4447,223.4707,1.002279,6.503096,2000,2.0,4.0
# From MPC 75704
P/1999 XN120 (Catalina),e,5.0297,285.2390,161.4586,4.191468,0.1148563,0.21315031,5.6492,02/08.0/2026,2000,g 13.5,2.0
# From NK 744
P/2000 R2 (LINEAR),e,11.6793,160.2683,176.5818,3.468154,0.1526007,0.53052015,10.3317,02/08.0/2026,2000,g 18.0,4.0
# From MPC 43019
P/2001 H5 (NEAT),e,8.3728,328.6848,224.5818,6.093126,0.0655305,0.59972044,247.5267,02/08.0/2026,2000,g 12.0,4.0
# From MPC 46619
C/2001 M10 (NEAT),e,27.9934,293.9625,5.6024,26.71830,0.0071366,0.79926210,64.3475,02/08.0/2026,2000,g  8.0,4.0
# From MPEC 2015-N31
C/2002 A1 (LINEAR),e,14.0786,81.0445,18.7239,16.04142,0.0153405,0.70975578,135.5348,02/08.0/2026,2000,g 12.5,2.0
# From MPC 89006
C/2002 A2 (LINEAR),e,14.0326,81.0113,19.1191,15.89640,0.0155509,0.70742837,137.2841,02/08.0/2026,2000,g 11.0,2.0
# From MPC 45962
C/2002 B1 (LINEAR),e,51.0299,58.2608,76.0916,9.873996,0.0317662,0.77055039,276.7294,02/08.0/2026,2000,g 11.5,4.0
# From MPC188408
C/2002 CE10 (LINEAR),e,145.3719,147.5643,126.2447,9.765542,0.0322968,0.78949114,266.7754,02/08.0/2026,2000,g 13.0,2.0
# From MPEC 2023-UR6
P/2002 EJ57 (LINEAR),e,4.9913,330.2189,167.3003,6.454440,0.0601058,0.59419461,167.5961,02/08.0/2026,2000,g 12.5,4.0
# From MPEC 2015-N31
C/2002 L9 (NEAT),h,04/02.2344/2004,68.2206,110.4979,231.5825,1.000435,7.073799,2000,8.5,2.0
# From MPC 75007
C/2002 VQ94 (LINEAR),e,70.6157,35.0470,99.8163,187.5840,0.0003836,0.96401253,2.8004,02/08.0/2026,2000,g  9.5,2.0
# From MPC186628
C/2003 A2 (Gleason),e,8.0713,154.4540,346.5592,8500,0.0000013,0.99866302,0.0000,11/08.8404/2003,2000,g  3.5,4.0
# From MPC 51182
C/2003 E1 (NEAT),e,33.4702,137.1235,103.9185,13.77246,0.0192835,0.76209439,155.3412,02/08.0/2026,2000,g 12.5,2.0
# From MPC 50354
P/2003 F2 (NEAT),e,11.5740,358.9643,193.1089,6.555335,0.0587235,0.53600737,134.0098,02/08.0/2026,2000,g 16.5,2.0
# From unp
P/2003 L1 (Scotti),e,9.0459,225.8192,355.0581,6.693930,0.0569092,0.25190767,115.9700,02/08.0/2026,2000,g  9.5,4.0
# From MPC105235
P/2003 T12 (SOHO),e,11.0202,174.5688,219.8057,2.584273,0.2372446,0.77002660,138.6324,02/08.0/2026,2000,g 17.0,4.0
# From MPC 57131
C/2004 B1 (LINEAR),h,02/07.8711/2006,113.9149,273.3320,328.1135,1.000948,1.601122,2000,10.5,2.0
# From MPC 51368
C/2004 C1 (Larsen),e,28.8625,151.9549,315.9683,11.62433,0.0248686,0.62580256,359.9917,03/19.0/2003,2000,g 13.5,2.0
# From MPEC 2022-YN2
P/2004 FY140 (LINEAR),e,2.1628,327.2624,254.3327,4.968388,0.0889981,0.19290508,326.2136,02/08.0/2026,2000,g 12.5,2.0
# From MPC 53304
P/2004 R3 (LINEAR-NEAT),e,12.8056,305.1244,37.0153,4.743811,0.0953922,0.25500300,153.3345,02/08.0/2026,2000,g 14.5,4.0
# From MPC 53465
C/2004 T3 (Siding Spring),e,71.7808,50.3537,259.8463,36693,0.0000001,0.99975725,0.0000,04/04.1248/2003,2000,g  2.5,4.0
# From MPC 75705
P/2004 V5 (LINEAR-Hill),e,19.3290,47.7338,87.1445,8.056380,0.0431017,0.44967954,336.5768,02/08.0/2026,2000,g  8.0,4.0
# From unp
P/2004 V5-A (LINEAR-Hill),e,19.3324,47.7608,87.1094,8.057220,0.0430949,0.44976399,336.5909,02/08.0/2026,2000,g  8.0,4.0
# From MPC 75705
P/2004 V5-B (LINEAR-Hill),e,19.3292,47.7342,87.1491,8.056575,0.0431001,0.44969323,336.5356,02/08.0/2026,2000,g  8.0,4.0
# From MPC 54164
P/2005 E1 (Tubbiolo),e,4.2607,335.4832,193.9739,7.074041,0.0523845,0.37760399,45.2322,02/08.0/2026,2000,g 10.0,4.0
# From MPC 74246
P/2005 L1 (McNaught),e,10.3217,123.7270,167.4570,3.831480,0.1314178,0.28532042,184.9328,02/08.0/2026,2000,g  9.5,4.0
# From MPC 87062
C/2005 L3 (McNaught),e,139.3135,288.7781,46.9631,3893,0.0000041,0.99856798,0.0000,01/14.0500/2008,2000,g  4.0,4.0
# From MPC 75706
P/2005 S2 (Skiff),e,3.1395,161.3258,230.0806,7.980908,0.0437145,0.19816589,312.6015,02/08.0/2026,2000,g  7.5,4.0
# From MPC 73461
P/2005 T3 (Read),e,6.2337,27.6186,7.1846,7.566750,0.0473522,0.17357798,350.8032,02/08.0/2026,2000,g  9.0,4.0
# From MPC 75707
P/2006 HR30 (Siding Spring),e,31.9669,309.7448,117.5297,7.793438,0.0453013,0.84351726,315.8540,02/08.0/2026,2000,g 11.0,4.0
# From MPEC 2022-L66
C/2006 S3 (LONEOS),h,04/16.4057/2012,166.0456,38.5299,140.1282,1.000634,5.117620,2000,2.0,4.0
# From MPC 84315
C/2007 D1 (LINEAR),e,41.5188,170.9796,339.8215,1314,0.0000207,0.99334838,0.0000,06/16.3349/2007,2000,g  3.5,4.0
# From MPEC 2024-GJ3
P/2007 K2 (Gibbs),e,7.5869,188.2898,347.0350,7.404576,0.0489163,0.68706505,342.7795,02/08.0/2026,2000,g 14.0,4.0
# From MPC 73462
P/2007 S1 (Zhao),e,5.9625,141.3205,245.2848,3.819333,0.1320452,0.33762931,161.2283,02/08.0/2026,2000,g 13.0,4.0
# From MPEC 2024-GJ3
C/2007 S2 (Lemmon),e,16.9212,296.1350,210.1513,12.49196,0.0223233,0.55748238,141.9957,02/08.0/2026,2000,g  6.5,4.0
# From MPEC 2024-GJ3
C/2008 E1 (Catalina),e,34.8636,188.8731,270.4304,10.76368,0.0279102,0.55293244,177.9387,02/08.0/2026,2000,g  7.0,4.0
# From MPC 95207
C/2008 S3 (Boattini),h,06/09.3501/2011,162.7418,55.0240,40.1970,1.001875,8.055610,2000,4.0,4.0
# From MPC 75710
P/2008 Y3 (McNaught),e,38.7806,262.8253,238.2003,8.033433,0.0432865,0.44866686,270.5915,02/08.0/2026,2000,g  8.5,4.0
# From MPC 75710
P/2009 B1 (Boattini),e,22.2597,297.1088,129.0283,6.721459,0.0565599,0.63579312,351.9399,02/08.0/2026,2000,g 13.0,4.0
# From MPC 95208
C/2009 F4 (McNaught),e,79.2068,53.5068,260.5031,21924,0.0000003,0.99975015,0.0000,12/25.3854/2011,2000,g  3.0,4.0
# From MPC103843
C/2009 P1 (Garradd),e,106.2235,325.8432,90.4529,10238,0.0000010,0.99984966,0.0000,12/24.1745/2011,2000,g  4.0,4.0
# From MPC 68902
P/2009 Q5 (McNaught),e,40.9474,160.1806,209.1988,7.427488,0.0486902,0.60907303,291.3677,02/08.0/2026,2000,g 10.0,4.0
# From MPC105235
P/2009 WX51 (Catalina),e,9.5981,31.5212,118.2931,3.083028,0.1820698,0.73976099,347.9739,02/08.0/2026,2000,g 19.0,2.0
# From MPC 74247
P/2009 Y2 (Kowalski),e,29.9725,262.0770,172.2793,6.534006,0.0590112,0.63727871,342.4844,02/08.0/2026,2000,g 13.0,4.0
# From MPC 75008
P/2010 C1 (Scotti),e,9.1159,141.5825,2.8726,7.134048,0.0517249,0.26454738,310.5685,02/08.0/2026,2000,g  9.5,4.0
# From MPC 75008
P/2010 D2 (WISE),e,57.1399,319.8801,120.0640,6.712680,0.0566709,0.45152188,330.7136,02/08.0/2026,2000,g 16.0,4.0
# From MPC 72851
P/2010 H2 (Vales),e,14.2779,64.1893,128.0785,3.835418,0.1312154,0.19800089,43.9800,02/08.0/2026,2000,g  6.0,4.0
# From MPC 70361
P/2010 H3 (SOHO),e,23.1392,77.1662,26.0903,3.034483,0.1864563,0.98558073,0.0000,05/25.2487/2026,2000,g 20.0,2.0
# From MPEC 2024-GJ3
P/2010 H4 (Scotti),e,2.3177,44.7494,179.0822,6.620302,0.0578612,0.26745342,332.9482,02/08.0/2026,2000,g 10.5,4.0
# From MPC 74637
P/2010 H5 (Scotti),e,14.0531,24.3590,175.5019,7.167460,0.0513637,0.15666185,298.2218,02/08.0/2026,2000,g 13.0,2.0
# From MPC 84315
P/2010 JC81 (WISE),e,38.7359,30.8305,12.5250,8.103212,0.0427286,0.77782643,230.3812,02/08.0/2026,2000,g  9.0,4.0
# From MPC 83518
C/2010 L3 (Catalina),e,102.6418,38.3174,121.7482,35260,0.0000001,0.99972015,0.0000,11/12.5079/2010,2000,g  4.5,4.0
# From MPC115879
C/2010 S1 (LINEAR),h,05/20.5391/2013,125.4393,93.6700,118.7122,1.000692,5.907583,2000,3.5,4.0
# From MPC 74248
P/2010 T2 (PANSTARRS),e,7.8522,57.6813,349.8094,5.566325,0.0750501,0.32433797,53.9461,02/08.0/2026,2000,g 11.5,4.0
# From MPEC 2023-J95
C/2010 U3 (Boattini),h,02/28.9221/2019,55.5263,42.9948,88.1138,1.000265,8.441205,2000,1.0,4.0
# From MPC 79021
P/2010 UH55 (Spacewatch),e,8.0380,232.7917,225.3831,6.644964,0.0575394,0.56465650,311.3538,02/08.0/2026,2000,g 11.0,4.0
# From MPC 84021
P/2011 C2 (Gibbs),e,10.8987,11.9684,160.3263,7.405689,0.0489053,0.27177694,253.1040,02/08.0/2026,2000,g  9.0,4.0
# From MPC 89309
C/2011 F1 (LINEAR),e,56.3871,85.1952,192.5996,3657,0.0000045,0.99949766,0.0000,01/01.6528/2013,2000,g  5.0,4.0
# From MPC 79866
P/2011 FR143 (Lemmon),e,15.9609,190.8415,349.6025,6.887045,0.0545324,0.45301830,300.6491,02/08.0/2026,2000,g 14.0,2.0
# From MPC106343
C/2011 J2 (LINEAR),h,12/20.5395/2013,122.7972,164.0578,85.4823,1.000317,3.459871,2000,5.5,3.6
# From MPC 82317
P/2011 JB15 (Spacewatch-Boattini),e,19.1280,153.5822,110.6010,7.382659,0.0491343,0.31527934,253.8502,02/08.0/2026,2000,g  9.0,4.0
# From MPEC 2023-J95
C/2011 KP36 (Spacewatch),e,18.9552,173.4079,180.9664,39.37573,0.0039890,0.87489962,14.1463,02/08.0/2026,2000,g  4.5,4.0
# From MPC 87913
P/2011 N1 (ASH),e,35.7824,77.6241,330.5234,6.231096,0.0633662,0.54530572,316.2051,02/08.0/2026,2000,g 11.5,4.0
# From MPEC 2022-ED3
P/2011 P1 (McNaught),e,5.6500,4.2414,349.1295,7.464293,0.0483305,0.32599157,274.0725,02/08.0/2026,2000,g  9.0,4.0
# From MPC107047
C/2011 P2 (PANSTARRS),e,8.9826,203.9298,76.1978,9.765861,0.0322952,0.36527086,182.7584,02/08.0/2026,2000,g  8.5,4.0
# From MPEC 2022-HC2
P/2011 S1 (Gibbs),e,2.6875,218.8977,193.0437,8.601183,0.0390721,0.20039514,163.5580,02/08.0/2026,2000,g  8.0,4.0
# From MPEC 2023-UR6
P/2011 V1 (Boattini),e,7.3822,46.4903,269.5904,3.858240,0.1300530,0.54838320,350.3082,02/08.0/2026,2000,g 15.5,4.0
# From MPC 82718
P/2011 W1 (PANSTARRS),e,3.7157,161.7908,283.1121,4.675851,0.0974794,0.28826685,142.2586,02/08.0/2026,2000,g 11.5,4.0
# From MPC 79342
